CUPID                   
1 49264U 21088E   26068.66993977  .00009454  00000+0  38662-3 0  9991
2 49264  97.3985 131.0756 0013746  59.9938 300.2662 15.24473777245013
STARLINK-32780          
1 62746U 25014M   26068.23528148  .00024532  00000+0  89767-3 0  9997
2 62746  43.0027 157.3244 0001702 263.2687  96.7971 15.27593172 63182
