[{"OBJECT_NAME":"CUPID","OBJECT_ID":"2021-088E","EPOCH":"2026-03-09T16:04:42.796128","MEAN_MOTION":15.24473777,"ECCENTRICITY":0.0013746,"INCLINATION":97.3985,"RA_OF_ASC_NODE":131.0756,"ARG_OF_PERICENTER":59.9938,"MEAN_ANOMALY":300.2662,"EPHEMERIS_TYPE":0,"CLASSIFICATION_TYPE":"U","NORAD_CAT_ID":49264,"ELEMENT_SET_NO":999,"REV_AT_EPOCH":24501,"BSTAR":0.00038662302,"MEAN_MOTION_DOT":9.454e-5,"MEAN_MOTION_DDOT":0},{"OBJECT_NAME":"STARLINK-32780","OBJECT_ID":"2025-014M","EPOCH":"2026-03-09T05:38:48.319872","MEAN_MOTION":15.27593172,"ECCENTRICITY":0.00017025,"INCLINATION":43.0027,"RA_OF_ASC_NODE":157.3244,"ARG_OF_PERICENTER":263.2687,"MEAN_ANOMALY":96.7971,"EPHEMERIS_TYPE":0,"CLASSIFICATION_TYPE":"U","NORAD_CAT_ID":62746,"ELEMENT_SET_NO":999,"REV_AT_EPOCH":6318,"BSTAR":0.00089767083,"MEAN_MOTION_DOT":0.00024532,"MEAN_MOTION_DDOT":0}]
